[{"OBJECT_NAME":"ONEWEB-0526","OBJECT_ID":"2022-138AH","EPOCH":"2026-03-09T17:21:04.156992","MEAN_MOTION":13.19725031,"ECCENTRICITY":0.00017638,"INCLINATION":87.9239,"RA_OF_ASC_NODE":324.7759,"ARG_OF_PERICENTER":83.2044,"MEAN_ANOMALY":276.9289,"EPHEMERIS_TYPE":0,"CLASSIFICATION_TYPE":"U","NORAD_CAT_ID":54144,"ELEMENT_SET_NO":999,"REV_AT_EPOCH":16368,"BSTAR":0.00029342197,"MEAN_MOTION_DOT":1.3e-6,"MEAN_MOTION_DDOT":0},{"OBJECT_NAME":"COSMOS 409","OBJECT_ID":"1971-038A","EPOCH":"2026-03-09T17:20:52.429056","MEAN_MOTION":13.17842311,"ECCENTRICITY":0.00220215,"INCLINATION":74.003,"RA_OF_ASC_NODE":163.2842,"ARG_OF_PERICENTER":70.8976,"MEAN_ANOMALY":43.1242,"EPHEMERIS_TYPE":0,"CLASSIFICATION_TYPE":"U","NORAD_CAT_ID":5180,"ELEMENT_SET_NO":999,"REV_AT_EPOCH":63914,"BSTAR":0.00038470119,"MEAN_MOTION_DOT":1.31e-6,"MEAN_MOTION_DDOT":0}]
